[
    {
      "LocationName": "Two-Spirited People",
      "Address": "593 Yonge Street",
      "Suite": "Suite 202",
      "City": "Toronto",
      "Postcode": "M4Y 1Z4"
    },
    {
      "LocationName": "Aboriginal Housing Support Centre",
      "Address": "20 Sewells Road",
      "City": "Toronto",
      "Postcode": "M1B 3G5"
    },
    {
      "LocationName": "Aboriginal Legal Services Toronto",
      "Address": "415 Yonge Street",
      "Suite": "Suite 803",
      "City": "Toronto",
      "Postcode": "M5B 2E7"
    },
    {
      "LocationName": "First Nations House University of Toronto",
      "Address": "563 Spadina Avenue",
      "Suite": "North Borden Building",
      "City": "Toronto",
      "Postcode": "M5S 2J7"
    },
    {
      "LocationName": "ANDPVA",
      "Address": "601 Christie Street ",
      "City": "Toronto",
      "Postcode": "M6G 4C7"
    },
    {
      "LocationName": "Anduhyaun",
      "Address": "1296 Weston Rd.",
      "City": "Toronto",
      "Postcode": "M6M 4R3"
    },
    {
      "LocationName": "Anishnawbe Health Toronto",
      "Address": "179 Gerrard Street East",
      "City": "Toronto",
      "Postcode": "M5A 2E5"
    },
    {
      "LocationName": "Anishnawbe Health Toronto",
      "Address": "225 Queen St East",
      "City": "Toronto",
      "Postcode": "M5A 1S4"
    },
    {
      "LocationName": "Canadian Council for Aboriginal Business",
      "Address": "2 Berkeley Street",
      "Suite": " Suite 310",
      "City": "Toronto",
      "Postcode": "M5A 4J5"
    },
    {
      "LocationName": "Council Fire Native Cultural Centre",
      "Address": "439 Dundas St. East",
      "City": "Toronto",
      "Postcode": "M5A 2B1"
    },
    {
      "LocationName": "First Nation School of Toronto",
      "Address": "935 Dundas St. East",
      "City": "Toronto",
      "Postcode": "M4M 1R5"
    },
    {
      "LocationName": "Gabriel Dumont Non Profit Housing",
      "Address": "4201 Kingston Rd.",
      "Suite": "114A",
      "City": "Toronto",
      "Postcode": "M1E 5B8"
    },
    {
      "LocationName": "ImagineNATIVE",
      "Address": "401 Richmond St. West ",
      "Suite": "Suite 349",
      "City": "Toronto",
      "Postcode": "M5V 3A8"
    },
    {
      "LocationName": "Miziwe Biik Aboriginal Employment and Training",
      "Address": "167-169 Gerrard St. East",
      "City": "Toronto",
      "Postcode": "M5A 2E4"
    },
    {
      "LocationName": "Na-Me-Res -Native Men's Residence",
      "Address": "14 Vaughan Rd.",
      "City": "Toronto",
      "Postcode": "M6G 2N1"
    },
    {
      "LocationName": "Native Canadian Centre of Toronto",
      "Address": "16 Spadina Road",
      "City": "Toronto",
      "Postcode": "M5R 2S7"
    },
    {
      "LocationName": "Native Child & Family Services",
      "Address": "30 College St.",
      "City": "Toronto",
      "Postcode": "M5G 1K2"
    },
    {
      "LocationName": "Native Earth Performing Arts Inc.",
      "Address": "55 Mill St. ",
      "Suite": "Building 74 Suite 300",
      "City": "Toronto",
      "Postcode": "M5S 2R4"
    },
    {
      "LocationName": "Native Women in the Arts",
      "Address": "401 Richmond St. West",
      "Suite": "Suite 420",
      "City": "Toronto",
      "Postcode": "M5V 3A8"
    },
    {
      "LocationName": "Native Women's Resources Centre",
      "Address": "191 Gerrard St. East",
      "City": "Toronto",
      "Postcode": "M5A 2B5"
    },
    {
      "LocationName": "Nekenaan Second Stage Housing",
      "Address": "1226 Weston Rd.",
      "City": "Toronto",
      "Postcode": "M6M 4P4"
    },
    {
      "LocationName": "New Frontiers Aboriginal Residential Corp.",
      "Address": "419 Coxwell Ave.",
      "City": "Toronto",
      "Postcode": "M4L 3B9"
    },
    {
      "LocationName": "Nishnawbe Homes Inc.",
      "Address": "244 Church St",
      "City": "Toronto",
      "Postcode": "M5B 1Z3"
    },
    {
      "LocationName": "Ontario Aboriginal HIV/Aids Strategy",
      "Address": "7 Hayden St.",
      "Suite": "Suite 201",
      "City": "Toronto",
      "Postcode": "M4Y 2P2"
    },
    {
      "LocationName": "Ontario Federation of Indian Friendship Centers",
      "Address": "219 Front St. East",
      "City": "Toronto",
      "Postcode": "M5A 1E8"
    },
    {
      "LocationName": "Ryerson Aboriginal Student Services",
      "Address": "379 Victoria St",
      "Suite": "Kerr Hall West Building (KHW)  Third Floor",
      "City": "Toronto",
      "Postcode": "M5B 2K3"
    },
    {
      "LocationName": "Wigwamen Inc.",
      "Address": "23 Lesmill Rd",
      "Suite": "Unit 106",
      "City": "Toronto",
      "Postcode": "M3B 3P6"
    }
  
]