[
  {
    "geometry": {
      "type": "Point",
      "coordinates": [
        -79.583521,
        43.743868
      ]
    },
    "provider": "Toronto Police Services",
    "full_addre": "5230 FINCH AVE W",
    "label": "23 Division",
    "postal_code": "M9V 0A1"
  },
  {
    "geometry": {
      "type": "Point",
      "coordinates": [
        -79.417222,
        43.637633
      ]
    },
    "provider": "Toronto Police Services",
    "full_addre": "9 HANNA AVE",
    "label": "Traffic Services",
    "postal_code": "M6K 1W8"
  },
  {
    "geometry": {
      "type": "Point",
      "coordinates": [
        -79.174057,
        43.770837
      ]
    },
    "provider": "Toronto Police Services",
    "full_addre": "4331 LAWRENCE AVE E",
    "label": "43 Division",
    "postal_code": "M1E 2T4"
  },
  {
    "geometry": {
      "type": "Point",
      "coordinates": [
        -79.417654,
        43.635019
      ]
    },
    "provider": "Toronto Police Services",
    "full_addre": "15 NOVA SCOTIA AVE",
    "label": "Mounted Unit",
    "postal_code": "M6K 3C3"
  },
  {
    "geometry": {
      "type": "Point",
      "coordinates": [
        -79.503482,
        43.605086
      ]
    },
    "provider": "Toronto Police Services",
    "full_addre": "70 BIRMINGHAM ST",
    "label": "Police College",
    "postal_code": "M8V 3W6"
  },
  {
    "geometry": {
      "type": "Point",
      "coordinates": [
        -79.421307,
        43.633896
      ]
    },
    "provider": "Toronto Police Services",
    "full_addre": "275 MANITOBA DR",
    "label": "14 Division Substation",
    "postal_code": "M6K 3C3"
  },
  {
    "geometry": {
      "type": "Point",
      "coordinates": [
        -79.503482,
        43.605086
      ]
    },
    "provider": "Toronto Police Services",
    "full_addre": "70 BIRMINGHAM ST",
    "label": "22 Division Substation",
    "postal_code": "M8V 3W6"
  },
  {
    "geometry": {
      "type": "Point",
      "coordinates": [
        -79.486789,
        43.694782
      ]
    },
    "provider": "Toronto Police Services",
    "full_addre": "200 TRETHEWEY DR",
    "label": "12 Division",
    "postal_code": "M6M 5E6"
  },
  {
    "geometry": {
      "type": "Point",
      "coordinates": [
        -79.436683,
        43.69833
      ]
    },
    "provider": "Toronto Police Services",
    "full_addre": "1435 EGLINTON AVE W",
    "label": "13 Division",
    "postal_code": "M6C 3Z4"
  },
  {
    "geometry": {
      "type": "Point",
      "coordinates": [
        -79.424933,
        43.650635
      ]
    },
    "provider": "Toronto Police Services",
    "full_addre": "150 HARRISON ST",
    "label": "14 Division",
    "postal_code": "M6J 2A4"
  },
  {
    "geometry": {
      "type": "Point",
      "coordinates": [
        -79.529185,
        43.643109
      ]
    },
    "provider": "Toronto Police Services",
    "full_addre": "3699 BLOOR ST W",
    "label": "22 Division",
    "postal_code": "M9A 1A2"
  },
  {
    "geometry": {
      "type": "Point",
      "coordinates": [
        -79.527473,
        43.756753
      ]
    },
    "provider": "Toronto Police Services",
    "full_addre": "40 NORFINCH DR",
    "label": "31 Division",
    "postal_code": "M3N 1X1"
  },
  {
    "geometry": {
      "type": "Point",
      "coordinates": [
        -79.414843,
        43.771836
      ]
    },
    "provider": "Toronto Police Services",
    "full_addre": "30 ELLERSLIE AVE",
    "label": "32 Division",
    "postal_code": "M2N 1X8"
  },
  {
    "geometry": {
      "type": "Point",
      "coordinates": [
        -79.349563,
        43.750938
      ]
    },
    "provider": "Toronto Police Services",
    "full_addre": "50 UPJOHN RD",
    "label": "33 Division",
    "postal_code": "M3B 2W1"
  },
  {
    "geometry": {
      "type": "Point",
      "coordinates": [
        -79.27711,
        43.730808
      ]
    },
    "provider": "Toronto Police Services",
    "full_addre": "2222 EGLINTON AVE E",
    "label": "41 Division",
    "postal_code": "M1K 2M2"
  },
  {
    "geometry": {
      "type": "Point",
      "coordinates": [
        -79.240012,
        43.789376
      ]
    },
    "provider": "Toronto Police Services",
    "full_addre": "242 MILNER AVE",
    "label": "42 Division",
    "postal_code": "M1S 5C4"
  },
  {
    "geometry": {
      "type": "Point",
      "coordinates": [
        -79.362142,
        43.651954
      ]
    },
    "provider": "Toronto Police Services",
    "full_addre": "51 PARLIAMENT ST",
    "label": "51 Division",
    "postal_code": "M5A 2Y5"
  },
  {
    "geometry": {
      "type": "Point",
      "coordinates": [
        -79.389728,
        43.654241
      ]
    },
    "provider": "Toronto Police Services",
    "full_addre": "255 DUNDAS ST W",
    "label": "52 Division",
    "postal_code": "M5T 2W5"
  },
  {
    "geometry": {
      "type": "Point",
      "coordinates": [
        -79.400661,
        43.706063
      ]
    },
    "provider": "Toronto Police Services",
    "full_addre": "75 EGLINTON AVE W",
    "label": "53 Division",
    "postal_code": "M4R 2G9"
  },
  {
    "geometry": {
      "type": "Point",
      "coordinates": [
        -79.309481,
        43.714611
      ]
    },
    "provider": "Toronto Police Services",
    "full_addre": "41 CRANFIELD RD",
    "label": "54 Division",
    "postal_code": "M4B 3H6"
  },
  {
    "geometry": {
      "type": "Point",
      "coordinates": [
        -79.317298,
        43.669182
      ]
    },
    "provider": "Toronto Police Services",
    "full_addre": "101 COXWELL AVE",
    "label": "55 Division",
    "postal_code": "M4L 3B3"
  },
  {
    "geometry": {
      "type": "Point",
      "coordinates": [
        -79.551535,
        43.756412
      ]
    },
    "provider": "Toronto Police Services",
    "full_addre": "113 TORYORK DR",
    "label": "North Collision Reporting Centre",
    "postal_code": "M9L 1X9"
  },
  {
    "geometry": {
      "type": "Point",
      "coordinates": [
        -79.288238,
        43.749558
      ]
    },
    "provider": "Toronto Police Services",
    "full_addre": "39 HOWDEN RD",
    "label": "East Collision Reporting Centre",
    "postal_code": "M1R 3C7"
  },
  {
    "geometry": {
      "type": "Point",
      "coordinates": [
        -79.385142,
        43.66136
      ]
    },
    "provider": "Toronto Police Services",
    "full_addre": "40 COLLEGE ST",
    "label": "Headquarters",
    "postal_code": "M5G 2J3"
  },
  {
    "geometry": {
      "type": "Point",
      "coordinates": [
        -79.347909,
        43.754959
      ]
    },
    "provider": "Toronto Police Services",
    "full_addre": "1500 DON MILLS RD",
    "label": "Parking East",
    "postal_code": "M3B 3K4"
  },
  {
    "geometry": {
      "type": "Point",
      "coordinates": [
        -79.458292,
        43.713763
      ]
    },
    "provider": "Toronto Police Services",
    "full_addre": "970 LAWRENCE AVE W",
    "label": "Parking West",
    "postal_code": "M6A 3B6"
  },
  {
    "geometry": {
      "type": "Point",
      "coordinates": [
        -79.510496,
        43.6176
      ]
    },
    "provider": "Toronto Police Services",
    "full_addre": "799 ISLINGTON AVE",
    "label": "Property & Evidence Management",
    "postal_code": "M2Z 5W8"
  },
  {
    "geometry": {
      "type": "Point",
      "coordinates": [
        -79.385873,
        43.637871
      ]
    },
    "provider": "Toronto Police Services",
    "full_addre": "259 QUEENS QUAY W",
    "label": "Marine Unit",
    "postal_code": "M5V 1A2"
  },
  {
    "geometry": {
      "type": "Point",
      "coordinates": [
        -79.465169,
        43.664605
      ]
    },
    "provider": "Toronto Police Services",
    "full_addre": "209 MAVETY ST",
    "label": "11 Division",
    "postal_code": "M6P 2M1"
  }
]